Serial Number,ID,Public/Private,System,Name,Eng. Name,Postal Code,Latitude,Longitude,Address,City,County,Neighborhood,County (zh)
1,0001,Public,一般大學,國立政治大學,National Chengchi Universerity,11605,24.98741,121.57651,"No. 64, Sec 2, Zhi Nan Rd., Wenshan District, Taipei City, 116, Taiwan",Taipei City,Taipei City,Wenshan District,臺北市
2,0002,Public,一般大學,國立清華大學,National Tsing Hua University,30013,24.79635,120.99686,"No. 101, Sec 2, Guang Fu Rd., East District, Hsinchu City, 300, Taiwan",Hsinchu City,Hsinchu City,East District,新竹市
3,0003,Public,一般大學,國立臺灣大學,NATIONAL TAIWAN UNIVERSITY,10617,25.01697,121.53369,"No. 1, Sec 4, Luo Si Fu Rd., Daan District, Taipei City, 106, Taiwan",Taipei City,Taipei City,Daan District,臺北市
4,0004,Public,一般大學,國立臺灣師範大學,National Taiwan Normal University,10610,25.02643,121.52756,"No. 162, Sec 1, He Ping E. Rd., Daan District, Taipei City, 106, Taiwan",Taipei City,Taipei City,Daan District,臺北市
5,0005,Public,一般大學,國立成功大學,National Cheng Kung University,70101,22.99632,120.21953,"No. 1, Da Syue Rd., East District, Tainan City, 701, Taiwan",Tainan City,Tainan City,East District,臺南市
6,0006,Public,一般大學,國立中興大學,National Chung Hsing University,40227,24.12323,120.67598,"No. 145, Xing Da Rd., South District, Taichung City, 402, Taiwan",Taichung City,Taichung City,South District,臺中市
7,0007,Public,一般大學,國立交通大學,National Chiao Tung University,30010,24.78914,120.99949,"No. 1001, Da Xue Rd., East District, Hsinchu City, 300, Taiwan",Hsinchu City,Hsinchu City,East District,新竹市
8,0008,Public,一般大學,國立中央大學,National Central University,32001,24.96843,121.19564,"No. 300, Zhong Da Rd., Zhongli District, Taoyuan City, 320, Taiwan",Taoyuan City,Taoyuan City,Zhongli District,桃園市
9,0009,Public,一般大學,國立中山大學,National Sun Yat-sen University,80424,22.62644,120.26593,"No. 70, Lian Hai Rd., Gushan District, Kaohsiung City, 804, Taiwan",Kaohsiung City,Kaohsiung City,Gushan District,高雄市
10,0012,Public,一般大學,國立臺灣海洋大學,National Taiwan Ocean University,20224,25.15086,121.77262,"No. 2, Bei Ning Rd., Zhongzheng District, Keelung City, 202, Taiwan",Keelung City,Keelung City,Zhongzheng District,基隆市
11,0013,Public,一般大學,國立中正大學,National Chung Cheng University,62102,23.56146,120.47339,"No. 168, 大學路, San Xing Vil., Minxiong Township, Chiayi County 621, Taiwan",Minxiong Township,Chiayi County,San Xing Vil.,嘉義縣
12,0014,Public,一般大學,國立高雄師範大學,National Kaohsiung Normal University,80201,22.62657,120.31984,"No. 116, He Ping 1st Rd., Lingya District, Kaohsiung City, 802, Taiwan",Kaohsiung City,Kaohsiung City,Lingya District,高雄市
13,0015,Public,一般大學,國立彰化師範大學,National Changhua University of Education,50007,24.08152,120.55856,"No. 1, Jin De Rd., Fu Xing Vil., Changhua City, Changhua County 500, Taiwan",Changhua City,Changhua County,Fu Xing Vil.,彰化縣
14,0016,Public,一般大學,國立陽明大學,National Yang-Ming University,11221,25.11965,121.51331,"No. 155, Sec 2, Li Nong St., Beitou District, Taipei City, 112, Taiwan",Taipei City,Taipei City,Beitou District,臺北市
15,0017,Public,一般大學,國立臺北大學,NATIONAL TAIPEI UNIVERSITY,23741,24.94514,121.37317,"No. 151, Da Syue Rd., Sanxia District, New Taipei City, 237, Taiwan",New Taipei City,New Taipei City,Sanxia District,新北市
16,0018,Public,一般大學,國立嘉義大學,National Chiayi University,60004,23.46369,120.48353,"No. 300, Xue Fu Rd., East District, Chiayi City, 600, Taiwan",Chiayi City,Chiayi City,East District,嘉義市
17,0019,Public,一般大學,國立高雄大學,National University of Kaohsiung,81148,22.73389,120.28281,"No. 700, Gao Xiong Da Xue Rd., Nanzih District, Kaohsiung City, 811, Taiwan",Kaohsiung City,Kaohsiung City,Nanzih District,高雄市
18,0020,Public,一般大學,國立東華大學,National Dong Hwa University,97401,23.89425,121.54343,"No. 1, Sec 2, Da Xue Rd., Zhi Xue Vil., Shoufeng Township, Hualien County 974, Taiwan",Shoufeng Township,Hualien County,Zhi Xue Vil.,花蓮縣
19,0021,Public,一般大學,國立暨南國際大學,National Chi Nan University,54561,23.9511,120.93081,"No. 1, Da Syue Rd., Tao Mi Vil., Puli Township, Nantou County 545, Taiwan",Puli Township,Nantou County,Tao Mi Vil.,南投縣
20,0022,Public,技專校院,國立臺灣科技大學,National Taiwan University of Science and Technology,10607,25.01371,121.54059,"No. 43, Sec 4, Kee Lung Rd., Daan District, Taipei City, 106, Taiwan",Taipei City,Taipei City,Daan District,臺北市
21,0023,Public,技專校院,國立雲林科技大學,National Yunlin University of Science & Technology,64002,23.69495,120.53485,"No. 123, Sec 3, Da Xue Rd., Long Tan Vil., Douliou City, Yunlin County 640, Taiwan",Douliou City,Yunlin County,Long Tan Vil.,雲林縣
22,0024,Public,技專校院,國立屏東科技大學,National Pingtung University of Science and Technology,91201,22.64119,120.59608,"No. 1, Syue Fu Rd., Lao PI Vil., Neipu Township, Pingtung County 912, Taiwan",Neipu Township,Pingtung County,Lao PI Vil.,屏東縣
23,0025,Public,技專校院,國立臺北科技大學,National Taipei University of Technology,10608,25.0422,121.53551,"No. 1, Sec 3, Zhong Xiao E. Rd., Daan District, Taipei City, 106, Taiwan",Taipei City,Taipei City,Daan District,臺北市
24,0028,Public,一般大學,國立臺北藝術大學,Taipei National University of the Arts,11201,25.12993,121.46618,"No. 1, Xue Yuan Rd., Beitou District, Taipei City, 112, Taiwan",Taipei City,Taipei City,Beitou District,臺北市
25,0029,Public,一般大學,國立臺灣藝術大學,National Taiwan University of Arts,22058,25.00589,121.44756,"No. 59, Sec 1, Da Guan Rd., Banqiao District, New Taipei City, 220, Taiwan",New Taipei City,New Taipei City,Banqiao District,新北市
26,0030,Public,一般大學,國立臺東大學,National Taitung University,95092,22.73826,121.06894,"No. 369, Sec 2, Da Xue Rd., Taitung City, Taitung County 950, Taiwan",Taitung City,Taitung County,,臺東縣
27,0031,Public,一般大學,國立宜蘭大學,National Ilan University,26047,24.7453,121.74808,"No. 1, Sec 1, Shen Nong Rd., Jin Shi Vil., Yilan City, Yilan County 260, Taiwan",Yilan City,Yilan County,Jin Shi Vil.,宜蘭縣
28,0032,Public,一般大學,國立聯合大學,National United University,36063,24.53903,120.79109,"No. 2, 聯大, Nan Shi Vil., Miaoli City, Miaoli County 360, Taiwan",Miaoli City,Miaoli County,Nan Shi Vil.,苗栗縣
29,0033,Public,技專校院,國立虎尾科技大學,National Formosa University,63201,23.70311,120.43015,"No. 64, Wen Hua Rd., An Qing Vil., Huwei Township, Yunlin County 632, Taiwan",Huwei Township,Yunlin County,An Qing Vil.,雲林縣
30,0035,Public,一般大學,國立臺南藝術大學,Tainan National University of the Arts,72045,23.186,120.37452,"No. 66, Da Qi Vil. Da Qi, Guantian District, Tainan City, 720, Taiwan",Tainan City,Tainan City,Guantian District,臺南市
31,0036,Public,一般大學,國立臺南大學,National University of Tainan,70005,22.98507,120.20799,"No. 33, Sec 2, Shu Lin St., West Central District, Tainan City, 700, Taiwan",Tainan City,Tainan City,West Central District,臺南市
32,0037,Public,一般大學,國立臺北教育大學,National Taipei University of Education,10671,25.0246,121.5447,"No. 134, Sec 2, He Ping E. Rd., Daan District, Taipei City, 106, Taiwan",Taipei City,Taipei City,Daan District,臺北市
33,0039,Public,一般大學,國立臺中教育大學,National Taichung University of Education,40306,24.1434,120.67179,"No. 140, Min Sheng Rd., West District, Taichung City, 403, Taiwan",Taichung City,Taichung City,West District,臺中市
34,0042,Public,技專校院,國立澎湖科技大學,National Penghu University of Science and Technology,88046,23.57392,119.58169,"No. 300, Liu He Rd., Chao Yang Vil., Magong City, Penghu County 880, Taiwan",Magong City,Penghu County,Chao Yang Vil.,澎湖縣
35,0043,Public,技專校院,國立勤益科技大學,National Chin-Yi University of Technology,41170,24.14636,120.73336,"No. 57, Sec 2, Zhong Shan Rd., Taiping District, Taichung City, 411, Taiwan",Taichung City,Taichung City,Taiping District,臺中市
36,0044,Public,一般大學,國立體育大學,National Taiwan Sport University,33301,25.0357,121.38526,"No. 250, Wen Hua 1st Rd., Guishan District, Taoyuan City, 333, Taiwan",Taoyuan City,Taoyuan City,Guishan District,桃園市
37,0046,Public,技專校院,國立臺北護理健康大學,National Taipei University of Nursing and Health Sciences,11219,25.11755,121.52134,"No. 365, Ming De Rd., Beitou District, Taipei City, 112, Taiwan",Taipei City,Taipei City,Beitou District,臺北市
38,0047,Public,技專校院,國立高雄餐旅大學,National Kaohsiung University of Hospitality and Tourism,81271,22.56571,120.37144,"No. 1, Song He Rd., Siaogang District, Kaohsiung City, 812, Taiwan",Kaohsiung City,Kaohsiung City,Siaogang District,高雄市
39,0048,Public,一般大學,國立金門大學,National Quemoy University,89250,24.44835,118.32454,"No. 1, Da Xue Rd., Quemoy Island, Kinmen County 892, Taiwan",Quemoy Island,Kinmen County,,金門縣
40,0049,Public,一般大學,國立臺灣體育運動大學,National Taiwan University of Sport,40404,24.14851,120.68722,"No. 16, Sec 1, Shuang Shi Rd., North District, Taichung City, 404, Taiwan",Taichung City,Taichung City,North District,臺中市
41,0050,Public,技專校院,國立臺中科技大學,National  Taichung University Of  Science And Technology,40401,24.15039,120.68301,"No. 129, Sec 3, San Min Rd., North District, Taichung City, 404, Taiwan",Taichung City,Taichung City,North District,臺中市
42,0051,Public,技專校院,國立臺北商業大學,National Taipei University of  Business,10051,25.04194,121.52553,"No. 321, Sec 1, Ji Nan Rd., Zhongzheng District, Taipei City, 100, Taiwan",Taipei City,Taipei City,Zhongzheng District,臺北市
43,0052,Public,一般大學,國立屏東大學,National Pingtung University,90003,22.66539,120.50447,"No. 4-18, Min Sheng Rd., Rui Guang Vil., Pingtung City, Pingtung County 900, Taiwan",Pingtung City,Pingtung County,Rui Guang Vil.,屏東縣
44,0053,Public,技專校院,國立高雄科技大學,National Kaohsiung University of Science and Technology,80778,22.65156,120.32828,"No. 415, Jian Gong Rd., Sanmin District, Kaohsiung City, 807, Taiwan",Kaohsiung City,Kaohsiung City,Sanmin District,高雄市
45,0144,Public,技專校院,國立臺灣戲曲學院,National Taiwan College of Performing Arts,11464,25.08146,121.58658,"No. 177, Sec 2, Nei Hu Rd., Neihu District, Taipei City, 114, Taiwan",Taipei City,Taipei City,Neihu District,臺北市
46,0221,Public,技專校院,國立臺南護理專科學校,National Tainan Junior College of Nursing,70043,22.99531,120.20749,"No. 78, Sec 2, Min Zu Rd., West Central District, Tainan City, 700, Taiwan",Tainan City,Tainan City,West Central District,臺南市
47,0222,Public,技專校院,國立臺東專科學校,National Taitung Junior College,95045,22.75901,121.1218,"No. 911, Zheng Qi N. Rd., Taitung City, Taitung County 950, Taiwan",Taitung City,Taitung County,,臺東縣
48,0A01,Public,空中大學,國立空中大學,National Open University,24701,25.08687,121.46804,"No. 172, Jhong Jheng Rd., Luzhou District, New Taipei City, 247, Taiwan",New Taipei City,New Taipei City,Luzhou District,新北市
49,1001,Private,一般大學,東海大學,Tunghai University,40704,24.18233,120.60782,"No. 1727, Sec 4, Taiwan Blvd., Xitun District, Taichung City, 407, Taiwan",Taichung City,Taichung City,Xitun District,臺中市
50,1002,Private,一般大學,輔仁大學,Fu Jen Catholic University,24205,25.03294,121.4341,"No. 510, Jhong Jheng Rd., Xinzhuang District, New Taipei City, 242, Taiwan",New Taipei City,New Taipei City,Xinzhuang District,新北市
51,1003,Private,一般大學,東吳大學,Soochow University,11102,25.09444,121.54575,"No. 70, Lin Xi Rd., Shilin District, Taipei City, 111, Taiwan",Taipei City,Taipei City,Shilin District,臺北市
52,1004,Private,一般大學,中原大學,Chung Yuan Christian University,32023,24.95728,121.24035,"No. 200, Zhong Bei Rd., Zhongli District, Taoyuan City, 320, Taiwan",Taoyuan City,Taoyuan City,Zhongli District,桃園市
53,1005,Private,一般大學,淡江大學學校財團法人淡江大學,Tamkang University,25137,25.17383,121.4471,"No. 151, Ying Zhuan Rd., Tamsui District, New Taipei City, 251, Taiwan",New Taipei City,New Taipei City,Tamsui District,新北市
54,1006,Private,一般大學,中國文化大學,Chinese Culture University,11114,25.13752,121.54041,"No. 55, Hua Gang Rd., Shilin District, Taipei City, 111, Taiwan",Taipei City,Taipei City,Shilin District,臺北市
55,1007,Private,一般大學,逢甲大學,Feng Chia University,40724,24.17931,120.64999,"No. 100, Wen Hua Rd., Xitun District, Taichung City, 407, Taiwan",Taichung City,Taichung City,Xitun District,臺中市
56,1008,Private,一般大學,靜宜大學,PROVIDENCE UNIVERSITY,43301,24.22575,120.57722,"No. 200, Sec 7, Taiwan Blvd., Shalu District, Taichung City, 433, Taiwan",Taichung City,Taichung City,Shalu District,臺中市
57,1009,Private,一般大學,長庚大學,Chang Gung University,33302,25.0334,121.38752,"No. 259, Wen Hua 1st Rd., Guishan District, Taoyuan City, 333, Taiwan",Taoyuan City,Taoyuan City,Guishan District,桃園市
58,1010,Private,一般大學,元智大學,Yuan Ze University,32003,24.9692,121.26294,"No. 135, Yuan Dong Rd., Zhongli District, Taoyuan City, 320, Taiwan",Taoyuan City,Taoyuan City,Zhongli District,桃園市
59,1011,Private,一般大學,中華大學學校財團法人中華大學,Chung Hua University,30012,24.75724,120.9524,"No. 707, Sec 2, Wu Fu Rd., Siangshan District, Hsinchu City, 300, Taiwan",Hsinchu City,Hsinchu City,Siangshan District,新竹市
60,1012,Private,一般大學,大葉大學,Da-Yeh University,51591,23.99991,120.59591,"No. 168, University Rd., Fu Xing Vil., Dacun Township, Changhua County 515, Taiwan",Dacun Township,Changhua County,Fu Xing Vil.,彰化縣
61,1013,Private,一般大學,華梵大學,Huafan University,22301,24.97826,121.69191,"No. 1, Hua Fan Rd., Shiding District, New Taipei City, 223, Taiwan",New Taipei City,New Taipei City,Shiding District,新北市
62,1014,Private,一般大學,義守大學,I-Shou University,84001,22.7297,120.40796,"No. 1, Sec 1, Syue Cheng Rd., Dashu District, Kaohsiung City, 840, Taiwan",Kaohsiung City,Kaohsiung City,Dashu District,高雄市
63,1015,Private,一般大學,世新大學,Shih Hsin University,11604,24.98862,121.54409,"No. 1, Lane 17, Sec 1, Mu Zha Rd., Wenshan District, Taipei City, 116, Taiwan",Taipei City,Taipei City,Wenshan District,臺北市
64,1016,Private,一般大學,銘傳大學,Ming Chuan University,11103,25.08719,121.52701,"No. 250, Sec 5, Zhong Shan N. Rd., Shilin District, Taipei City, 111, Taiwan",Taipei City,Taipei City,Shilin District,臺北市
65,1017,Private,一般大學,實踐大學,Shih Chien University,10462,25.08358,121.54623,"No. 70, Da Zhi St., Zhongshan District, Taipei City, 104, Taiwan",Taipei City,Taipei City,Zhongshan District,臺北市
66,1018,Private,技專校院,朝陽科技大學,Chaoyang University of Technology,41349,24.06915,120.716,"No. 168, Ji Feng E. Rd., Wufeng District, Taichung City, 413, Taiwan",Taichung City,Taichung City,Wufeng District,臺中市
67,1019,Private,一般大學,高雄醫學大學,Kaohsiung Medical University,80708,22.64516,120.30993,"No. 100, Shih Cyuan 1st Rd., Sanmin District, Kaohsiung City, 807, Taiwan",Kaohsiung City,Kaohsiung City,Sanmin District,高雄市
68,1020,Private,一般大學,南華大學,Nanhua university,62248,23.56985,120.49423,"No. 55, Sec 1, Nan Hua Rd., Zhong Keng Vil., Dalin Township, Chiayi County 622, Taiwan",Dalin Township,Chiayi County,Zhong Keng Vil.,嘉義縣
69,1021,Private,一般大學,真理大學,Aletheia University,25103,25.17556,121.4346,"No. 32, Zhen Li St., Tamsui District, New Taipei City, 251, Taiwan",New Taipei City,New Taipei City,Tamsui District,新北市
70,1022,Private,一般大學,大同大學,Tatung University,10452,25.06683,121.5222,"No. 40, Sec 3, Zhong Shan N. Rd., Zhongshan District, Taipei City, 104, Taiwan",Taipei City,Taipei City,Zhongshan District,臺北市
71,1023,Private,技專校院,南臺學校財團法人南臺科技大學,Southern Taiwan University of Science and Technology,71005,23.02227,120.22501,"No. 1, Nan Tai St., Yongkang District, Tainan City, 710, Taiwan",Tainan City,Tainan City,Yongkang District,臺南市
72,1024,Private,技專校院,崑山科技大學,Kun Shan University,71070,22.99837,120.25289,"No. 195, Kun Da Rd., Yongkang District, Tainan City, 710, Taiwan",Tainan City,Tainan City,Yongkang District,臺南市
73,1025,Private,技專校院,嘉藥學校財團法人嘉南藥理大學,Chia Nan University of Pharmacy & Science,71710,22.92012,120.22578,"No. 60, Sec 1, Er Ren Rd., Rende District, Tainan City, 717, Taiwan",Tainan City,Tainan City,Rende District,臺南市
74,1026,Private,技專校院,樹德科技大學,Shu-Te University,82445,22.76463,120.37497,"No. 59, Heng Shan Rd., Yanchao District, Kaohsiung City, 824, Taiwan",Kaohsiung City,Kaohsiung City,Yanchao District,高雄市
75,1027,Private,一般大學,慈濟學校財團法人慈濟大學,Tzu Chi University,97004,23.99279,121.59136,"No. 701, Sec 3, Jung Yang Rd., Guo Fu Vil., Hualien City, Hualien County 970, Taiwan",Hualien City,Hualien County,Guo Fu Vil.,花蓮縣
76,1028,Private,一般大學,臺北醫學大學,Taipei Medical University,11031,25.02658,121.56266,"No. 250, Wu Xing St., Xinyi District, Taipei City, 110, Taiwan",Taipei City,Taipei City,Xinyi District,臺北市
77,1029,Private,一般大學,中山醫學大學,CHUNG SHAN MEDICAL UNIVERSITY,40201,24.12181,120.65121,"No. 110, Sec 1, Jian Guo N. Rd., South District, Taichung City, 402, Taiwan",Taichung City,Taichung City,South District,臺中市
78,1030,Private,技專校院,龍華科技大學,Lunghwa University of Science and Technology,33306,25.01879,121.40257,"No. 300, Sec 1, Wan Shou Rd., Guishan District, Taoyuan City, 333, Taiwan",Taoyuan City,Taoyuan City,Guishan District,桃園市
79,1031,Private,技專校院,輔英科技大學,Fooyin University,83102,22.60389,120.39126,"No. 151, Jin Syue Rd., Daliao District, Kaohsiung City, 831, Taiwan",Kaohsiung City,Kaohsiung City,Daliao District,高雄市
80,1032,Private,技專校院,明新學校財團法人明新科技大學,Minghsin University of Science and Technology,30401,24.86465,120.99107,"No. 1, Xin Xing Rd., Song Lin Vil., Xinfeng Township, Hsinchu County 304, Taiwan",Xinfeng Township,Hsinchu County,Song Lin Vil.,新竹縣
81,1033,Private,一般大學,長榮大學,Chang Jung Christian University,71101,22.907,120.27323,"No. 9, Zhang Da Rd., Gueiren District, Tainan City, 711, Taiwan",Tainan City,Tainan City,Gueiren District,臺南市
82,1034,Private,技專校院,弘光科技大學,Hungkuang University,43302,24.21745,120.58254,"No. 1018, Sec 6, Taiwan Blvd., Shalu District, Taichung City, 433, Taiwan",Taichung City,Taichung City,Shalu District,臺中市
83,1035,Private,一般大學,中國醫藥大學,CHINA MEDICAL UNIVERSITY,40402,24.15634,120.6811,"No. 91, Xue Shi Rd., North District, Taichung City, 404, Taiwan",Taichung City,Taichung City,North District,臺中市
84,1036,Private,技專校院,健行學校財團法人健行科技大學,Chien Hsin University of Science and Technology,32097,24.94758,121.22853,"No. 229, Jian Xing Rd., Zhongli District, Taoyuan City, 320, Taiwan",Taoyuan City,Taoyuan City,Zhongli District,桃園市
85,1037,Private,技專校院,正修學校財團法人正修科技大學,Cheng Shiu University,83347,22.65078,120.34965,"No. 840, Cheng Qing Rd., Niaosong District, Kaohsiung City, 833, Taiwan",Kaohsiung City,Kaohsiung City,Niaosong District,高雄市
86,1038,Private,技專校院,萬能學校財團法人萬能科技大學,Vanung University,32061,24.99059,121.23243,"No. 1, Wan Neng Rd., Zhongli District, Taoyuan City, 320, Taiwan",Taoyuan City,Taoyuan City,Zhongli District,桃園市
87,1039,Private,一般大學,玄奘大學,Hsuan Chuang University,30092,24.77571,120.94339,"No. 48, Xuan Zang Rd., Siangshan District, Hsinchu City, 300, Taiwan",Hsinchu City,Hsinchu City,Siangshan District,新竹市
88,1040,Private,技專校院,建國科技大學,Chienkuo Technology University,50094,24.06659,120.54933,"No. 1, Jie Shou N. Rd., Jian Bao Vil., Changhua City, Changhua County 500, Taiwan",Changhua City,Changhua County,Jian Bao Vil.,彰化縣
89,1041,Private,技專校院,明志科技大學,Ming Chi University of Technology,24301,25.04059,121.42225,"No. 84, Gong Zhuan Rd., Taishan District, New Taipei City, 243, Taiwan",New Taipei City,New Taipei City,Taishan District,新北市
90,1042,Private,技專校院,高苑科技大學,Kao Yuan University,82151,22.84109,120.26645,"No. 1821, Zhong Shan Rd., Lujhu District, Kaohsiung City, 821, Taiwan",Kaohsiung City,Kaohsiung City,Lujhu District,高雄市
91,1043,Private,技專校院,大仁科技大學,Tajen University,90741,22.72684,120.54312,"No. 20, Wei Sin Rd., Xin Er Vil., Yanpu Township, Pingtung County 907, Taiwan",Yanpu Township,Pingtung County,Xin Er Vil.,屏東縣
92,1044,Private,技專校院,聖約翰科技大學,St. John’s University,25135,25.22698,121.45168,"No. 499, Sec 4, Dan Jin Rd., Tamsui District, New Taipei City, 251, Taiwan",New Taipei City,New Taipei City,Tamsui District,新北市
93,1045,Private,技專校院,嶺東科技大學,Ling Tung University,40852,24.13776,120.60961,"No. 1, Ling Dong Rd., Nantun District, Taichung City, 408, Taiwan",Taichung City,Taichung City,Nantun District,臺中市
94,1046,Private,技專校院,中國科技大學,China University of Technology,11695,24.99926,121.55541,"No. 56, Sec 3, Xing Long Rd., Wenshan District, Taipei City, 116, Taiwan",Taipei City,Taipei City,Wenshan District,臺北市
95,1047,Private,技專校院,中臺科技大學,Central Taiwan University of Science and Technology,40601,24.1702206,120.7335374,"No. 660, Buzi Rd., Beitun District, Taichung City, 406, Taiwan",Taichung City,Taichung City,Beitun District,臺中市
96,1048,Private,一般大學,亞洲大學,Asia University,41354,24.04702,120.68468,"No. 500, Liu Feng Rd., Wufeng District, Taichung City, 413, Taiwan",Taichung City,Taichung City,Wufeng District,臺中市
97,1049,Private,一般大學,開南大學,Kainan University,33857,25.01078,121.27156,"No. 1, Kai Nan Rd., Luzhu District, Taoyuan City, 338, Taiwan",Taoyuan City,Taoyuan City,Luzhu District,桃園市
98,1050,Private,一般大學,佛光大學,Fo Guang University,26247,24.81618,121.72191,"No. 160, Lin Wei Rd., Lin Mei Vil., Jiaoxi Township, Yilan County 262, Taiwan",Jiaoxi Township,Yilan County,Lin Mei Vil.,宜蘭縣
99,1051,Private,技專校院,台南家專學校財團法人台南應用科技大學,Tainan School of Home Economics Foundation at Tainan University of Technology,71002,23.03932,120.23859,"No. 529, Jhong Jheng Rd., Yongkang District, Tainan City, 710, Taiwan",Tainan City,Tainan City,Yongkang District,臺南市
100,1052,Private,技專校院,遠東科技大學,Far East University,74448,23.06483,120.29482,"No. 49, Jhong Hua Rd., Sinshih District, Tainan City, 744, Taiwan",Tainan City,Tainan City,Sinshih District,臺南市
101,1053,Private,技專校院,光宇學校財團法人元培醫事科技大學,Yuanpei University of Medical Technology,30015,24.77784,120.94038,"No. 306, Yuan Pei St., Siangshan District, Hsinchu City, 300, Taiwan",Hsinchu City,Hsinchu City,Siangshan District,新竹市
102,1054,Private,技專校院,景文科技大學,Jinwen University of Science and Technology,23154,24.95199,121.50928,"No. 99, An Zhong Rd., Xindian District, New Taipei City, 231, Taiwan",New Taipei City,New Taipei City,Xindian District,新北市
103,1055,Private,技專校院,中華醫事科技大學,Chung Hwa University of Medical Technology,71703,22.96084,120.24325,"No. 89, Wun Hua 1st St., Rende District, Tainan City, 717, Taiwan",Tainan City,Tainan City,Rende District,臺南市
104,1056,Private,技專校院,東南科技大學,Tungnan University,22202,25.00444,121.60474,"No. 152, Sec 3, Bei Shen Rd., Shenkeng District, New Taipei City, 222, Taiwan",New Taipei City,New Taipei City,Shenkeng District,新北市
105,1057,Private,技專校院,德明財經科技大學,Takming University of Science and Technology,11451,25.08649,121.56562,"No. 56, Sec 1, Huan Shan Rd., Neihu District, Taipei City, 114, Taiwan",Taipei City,Taipei City,Neihu District,臺北市
106,1058,Private,一般大學,明道學校財團法人明道大學,MINGDAO UNIVERSITY,52345,23.86935,120.49473,"No. 369, Wen Hua Rd., Yuan Pu Vil., Pitou Township, Changhua County 523, Taiwan",Pitou Township,Changhua County,Yuan Pu Vil.,彰化縣
107,1060,Private,技專校院,南開科技大學,Nan Kai University of Technology,54243,23.97915,120.69688,"No. 568, Jhong Jheng Rd., Fu Liao Vil., Caotun Township, Nantou County 542, Taiwan",Caotun Township,Nantou County,Fu Liao Vil.,南投縣
108,1061,Private,技專校院,中華學校財團法人中華科技大學,China University of Science and Technology,11581,25.03359,121.60992,"No. 245, Sec 3, Academia Rd., Nangang District, Taipei City, 115, Taiwan",Taipei City,Taipei City,Nangang District,臺北市
109,1062,Private,技專校院,僑光科技大學,Overseas Chinese University,40721,24.18911,120.64319,"No. 100, Qiao Guang Rd., Xitun District, Taichung City, 407, Taiwan",Taichung City,Taichung City,Xitun District,臺中市
110,1063,Private,技專校院,廣亞學校財團法人育達科技大學,Yu Da University of Science and Technology,36143,24.64964,120.84259,"No. 168, Xue Fu Rd., Tan Wen Vil., Zaoqiao Township, Miaoli County 361, Taiwan",Zaoqiao Township,Miaoli County,Tan Wen Vil.,苗栗縣
111,1064,Private,技專校院,美和學校財團法人美和科技大學,Meiho University,91202,22.60368,120.56073,"No. 23, Ping Guang Rd., Nei Tian Vil., Neipu Township, Pingtung County 912, Taiwan",Neipu Township,Pingtung County,Nei Tian Vil.,屏東縣
112,1065,Private,技專校院,吳鳳科技大學,WuFeng University,62153,23.53517,120.4363,"No. 117, Sec 2, Jian Guo Rd., Wen Long Vil., Minxiong Township, Chiayi County 621, Taiwan",Minxiong Township,Chiayi County,Wen Long Vil.,嘉義縣
113,1066,Private,技專校院,環球學校財團法人環球科技大學,TransWorld University,64063,23.68046,120.55553,"No. 1221, Jhen Nan Rd., Jia Dong Vil., Douliou City, Yunlin County 640, Taiwan",Douliou City,Yunlin County,Jia Dong Vil.,雲林縣
114,1067,Private,一般大學,台灣首府學校財團法人台灣首府大學,Taiwan Shoufu University,72153,23.19198,120.27069,"No. 168, 南勢里, Madou District, Tainan City, 721, Taiwan",Tainan City,Tainan City,Madou District,臺南市
115,1068,Private,技專校院,中州學校財團法人中州科技大學,Chung Chou University of Science and Technology,51003,23.95774,120.60451,"No. 6, Lane 2, Sec 3, Shan Jiao Rd., Zhen Xing Vil., Yuanlin City, Changhua County 510, Taiwan",Yuanlin City,Changhua County,Zhen Xing Vil.,彰化縣
116,1069,Private,技專校院,修平學校財團法人修平科技大學,Hsiuping University of Science and Technology,41280,24.09544,120.71359,"No. 11, Gong Ye Rd., Dali District, Taichung City, 412, Taiwan",Taichung City,Taichung City,Dali District,臺中市
117,1070,Private,技專校院,長庚學校財團法人長庚科技大學,Chang Gung University of Science and Technology,33303,25.03053,121.38956,"No. 261, Wen Hua 1st Rd., Guishan District, Taoyuan City, 333, Taiwan",Taoyuan City,Taoyuan City,Guishan District,桃園市
118,1071,Private,技專校院,城市學校財團法人臺北城市科技大學,Taipei City University of Science and Technology,11202,25.13133,121.46806,"No. 2, Xue Yuan Rd., Beitou District, Taipei City, 112, Taiwan",Taipei City,Taipei City,Beitou District,臺北市
119,1072,Private,技專校院,大華學校財團法人敏實科技大學,Minth University of Science and Technology,30740,24.77732,121.09061,"No. 1, Da Hua Rd., Shui Keng Vil., Qionglin Township, Hsinchu County 307, Taiwan",Qionglin Township,Hsinchu County,Shui Keng Vil.,新竹縣
120,1073,Private,技專校院,醒吾學校財團法人醒吾科技大學,Hsing Wu University of Science and Technology,24452,25.08076,121.39667,"No. 101, Sec 1, Fen Liao Rd., Linkou District, New Taipei City, 244, Taiwan",New Taipei City,New Taipei City,Linkou District,新北市
121,1075,Private,技專校院,文藻學校財團法人文藻外語大學,Wenzao Ursuline University of Languages,80793,22.67007,120.31809,"No. 900, Min Zu 1st Rd., Sanmin District, Kaohsiung City, 807, Taiwan",Kaohsiung City,Kaohsiung City,Sanmin District,高雄市
122,1076,Private,技專校院,華夏學校財團法人華夏科技大學,Hwa Hsia University of Technology,23568,24.98059,121.50773,"No. 111, Gong Zhuan Rd., Zhonghe District, New Taipei City, 235, Taiwan",New Taipei City,New Taipei City,Zhonghe District,新北市
123,1077,Private,技專校院,慈濟學校財團法人慈濟科技大學,Tzu Chi University of Science and Technology,97005,23.99735,121.56494,"No. 880, Sec 2, Jian Guo Rd., Guo Fu Vil., Hualien City, Hualien County 970, Taiwan",Hualien City,Hualien County,Guo Fu Vil.,花蓮縣
124,1078,Private,技專校院,致理學校財團法人致理科技大學,Chihlee University of Technology,22050,25.02085,121.46523,"No. 313, Sec 1, Wen Hua Rd., Banqiao District, New Taipei City, 220, Taiwan",New Taipei City,New Taipei City,Banqiao District,新北市
125,1079,Private,一般大學,康寧學校財團法人康寧大學,University of Kang Ning,11485,25.07518,121.61007,"No. 137, Lane 75, Sec 3, Kang Ning Rd., Neihu District, Taipei City, 114, Taiwan",Taipei City,Taipei City,Neihu District,臺北市
126,1080,Private,技專校院,宏國學校財團法人宏國德霖科技大學,Hungkuo Delin University of Technology,23654,24.97353,121.45644,"No. 1, Lane 380, Ching Yun Rd., Tucheng District, New Taipei City, 236, Taiwan",New Taipei City,New Taipei City,Tucheng District,新北市
127,1081,Private,技專校院,東方學校財團法人東方設計大學,TungFang Design University,82941,22.87973,120.24703,"No. 110, Dong Fang Rd., Hunei District, Kaohsiung City, 829, Taiwan",Kaohsiung City,Kaohsiung City,Hunei District,高雄市
128,1082,Private,技專校院,崇右學校財團法人崇右影藝科技大學,Chungyu University of Film and Arts,20103,25.13173,121.75377,"No. 40, Yi 7th Rd., Xinyi District, Keelung City, 201, Taiwan",Keelung City,Keelung City,Xinyi District,基隆市
129,1083,Private,技專校院,台北海洋學校財團法人台北海洋科技大學,Taipei University of Marine Technology,25172,25.19218,121.42585,"No. 150, Sec 3, Bin Hai Rd., Tamsui District, New Taipei City, 251, Taiwan",New Taipei City,New Taipei City,Tamsui District,新北市
130,1125,Private,一般大學,中信金融管理學院,CTBC Business School,70963,23.06386,120.16221,"No. 600, Sec 3, Tai Jiang Blvd., Annan District, Tainan City, 709, Taiwan",Tainan City,Tainan City,Annan District,臺南市
131,1148,Private,技專校院,大漢技術學院,Dahan Institute of Technology,97145,24.03971,121.6057,"No. 1, Shu Ren St., Da Han Vil., Xincheng Township, Hualien County 971, Taiwan",Xincheng Township,Hualien County,Da Han Vil.,花蓮縣
132,1159,Private,技專校院,和春技術學院,Fortune Institute of Technology,83160,22.6049705,120.4277995,"No. 273, Zhi Xue Rd., Daliao District, Kaohsiung City, 831, Taiwan",Kaohsiung City,Kaohsiung City,Daliao District,高雄市
133,1166,Private,技專校院,亞東技術學院,Oriental Institute of Technology,22061,24.99518,121.4531,"No. 58, Sec 2, Si Chuan Rd., Banqiao District, New Taipei City, 220, Taiwan",New Taipei City,New Taipei City,Banqiao District,新北市
134,1168,Private,技專校院,南亞科技學校財團法人南亞技術學院,Nanya Institute of Technology,32091,24.9374,121.25189,"No. 414, Sec 3, Jung Shan E. Rd., Zhongli District, Taoyuan City, 320, Taiwan",Taoyuan City,Taoyuan City,Zhongli District,桃園市
135,1176,Private,一般大學,稻江科技暨管理學院,TOKO  UNIVERSITY,61363,23.44791,120.28882,"No. 51, Sec 2, Syue Fu Rd., Ren He Vil., Puzi City, Chiayi County 613, Taiwan",Puzi City,Chiayi County,Ren He Vil.,嘉義縣
136,1182,Private,技專校院,蘭陽技術學院,Lan Yang Institute of Technology,26141,24.86449,121.81803,"No. 79, Fu Sing Rd., Ba Ya Vil., Toucheng Township, Yilan County 261, Taiwan",Toucheng Township,Yilan County,Ba Ya Vil.,宜蘭縣
137,1183,Private,技專校院,黎明技術學院,Lee-Ming Institute of Technology,24305,25.06589,121.41961,"No. 22, Sec 3, Tai Lin Rd., Taishan District, New Taipei City, 243, Taiwan",New Taipei City,New Taipei City,Taishan District,新北市
138,1185,Private,技專校院,經國管理暨健康學院,CHING KUO INSTITUTE OF MANAGEMENT AND HEALTH,20301,25.14998,121.72784,"No. 336, Fu Xing Rd., Zhongshan District, Keelung City, 203, Taiwan",Keelung City,Keelung City,Zhongshan District,基隆市
139,1188,Private,技專校院,大同技術學院,Tatung Institute of Technology,60005,23.46949,120.46496,"No. 253, Mi Tuo Rd., East District, Chiayi City, 600, Taiwan",Chiayi City,Chiayi City,East District,嘉義市
140,1192,Private,技專校院,臺灣觀光學院,The Culinary Institute of Taiwan,97448,23.85689,121.4862,"No. 268, Zhong Xing St., Feng Shan Vil., Shoufeng Township, Hualien County 974, Taiwan",Shoufeng Township,Hualien County,Feng Shan Vil.,花蓮縣
141,1195,Private,一般大學,馬偕學校財團法人馬偕醫學院,MacKay Medical College,25245,25.25292,121.49669,"No. 46, Sec 3, Zhong Zheng Rd., Sanzhi District, New Taipei City, 252, Taiwan",New Taipei City,New Taipei City,Sanzhi District,新北市
142,1196,Private,一般大學,法鼓學校財團法人法鼓文理學院,Dharma Drum Institute of Liberal Art,20842,25.24244,121.61478,"No. 650, Fa Gu Rd., Jinshan District, New Taipei City, 208, Taiwan",New Taipei City,New Taipei City,Jinshan District,新北市
143,1282,Private,技專校院,馬偕學校財團法人馬偕醫護管理專科學校,"MacKay Junior College of Medicine, Nursing, and Management",25245,25.25292,121.49669,"No. 46, Sec 3, Zhong Zheng Rd., Sanzhi District, New Taipei City, 252, Taiwan",New Taipei City,New Taipei City,Sanzhi District,新北市
144,1283,Private,技專校院,仁德醫護管理專科學校,"Jen-Teh Junior College of Medicine, Nursing and Management",35664,24.62365,120.78197,"No. 79-9, 砂崙湖, XI Zhou Vil., Houlong Township, Miaoli County 356, Taiwan",Houlong Township,Miaoli County,XI Zhou Vil.,苗栗縣
145,1284,Private,技專校院,樹人醫護管理專科學校,Shu-Zen Junior College of Medicine and Management,82144,22.88268,120.26108,"No. 452, Huan Qiu Rd., Lujhu District, Kaohsiung City, 821, Taiwan",Kaohsiung City,Kaohsiung City,Lujhu District,高雄市
146,1285,Private,技專校院,慈惠醫護管理專科學校,TZU HUI Institute of Technology,92641,22.48803,120.48947,"No. 367, San Min Rd., Qi Kuai Vil., Nanzhou Township, Pingtung County 926, Taiwan",Nanzhou Township,Pingtung County,Qi Kuai Vil.,屏東縣
147,1286,Private,技專校院,耕莘健康管理專科學校,Cardinal Tien Junior College of Healthcare And Management,23143,24.97768,121.53635,"No. 112, Min Zu Rd., Xindian District, New Taipei City, 231, Taiwan",New Taipei City,New Taipei City,Xindian District,新北市
148,1287,Private,技專校院,敏惠醫護管理專科學校,Min-Hwei Junior College of Health Care Management,73658,23.27988,120.3297,"No. 1116, Sec 2, Jhong Shan E. Rd., Liouying District, Tainan City, 736, Taiwan",Tainan City,Tainan City,Liouying District,臺南市
149,1289,Private,技專校院,育英醫護管理專科學校,Yuh-Ing Junior College of Health Care & Management,80776,22.6503,120.3329,"No. 15, Lane 432, Da Chang 2nd Rd., Sanmin District, Kaohsiung City, 807, Taiwan",Kaohsiung City,Kaohsiung City,Sanmin District,高雄市
150,1291,Private,技專校院,聖母醫護管理專科學校,"St. Mary&acute;s Junior College of Medicine, Nursing and Management",26647,24.66496,121.70301,"No. 100, Lane 265, Sec 2, San Sing Rd., Da Yin Vil., Sanxing Township, Yilan County 266, Taiwan",Sanxing Township,Yilan County,Da Yin Vil.,宜蘭縣
151,1292,Private,技專校院,新生醫護管理專科學校,Hsin Sheng Junior College of Medical Care and Management,32544,24.83257,121.20662,"No. 418, Sec Gao Ping, Jung Feng Rd., Longtan District, Taoyuan City, 325, Taiwan",Taoyuan City,Taoyuan City,Longtan District,桃園市
152,1293,Private,技專校院,崇仁醫護管理專科學校,"Chung-Jen Junior College of Nursing, Health Sciences and Management",62241,23.62,120.45875,"No. 1-10, Hu Bei Vil., Da Hu, Hu bei Vil., Dalin Township, Chiayi County 622, Taiwan",Dalin Township,Chiayi County,Hu bei Vil.,嘉義縣
153,1R02,Private,宗教研修學院,學校財團法人中華浸信會基督教台灣浸會神學院,TAIWAN BAPTIST CHRISTIAN SEMINARY,11045,25.02448,121.56695,"No. 1, Lane 394, Wu Xing St., Xinyi District, Taipei City, 110, Taiwan",Taipei City,Taipei City,Xinyi District,臺北市
154,1R03,Private,宗教研修學院,臺北基督學院,Christ''s College Taipei,25162,25.13129,121.46155,"No. 51, Zi Qiang Rd., Tamsui District, New Taipei City, 251, Taiwan",New Taipei City,New Taipei City,Tamsui District,新北市
155,1R04,Private,宗教研修學院,財團法人一貫道天皇基金會一貫道天皇學院,I-Kuan Tao College,84442,22.8889,120.61662,"No. 81, San Min Rd., Liouguei District, Kaohsiung City, 844, Taiwan",Kaohsiung City,Kaohsiung City,Liouguei District,高雄市
156,1R05,Private,宗教研修學院,台神學校財團法人台灣神學研究學院,Taiwan Graduate School of Theology,11149,25.10163,121.5409,"No. 20, Lane 2, Sec 2, Yang De Blvd., Shilin District, Taipei City, 111, Taiwan",Taipei City,Taipei City,Shilin District,臺北市
157,1R06,Private,宗教研修學院,一貫道崇德學院,i.k.t chong-de school,54552,23.9604,121.00169,"No. 25-8, Li Yu Rd., Wu Gong Vil., Puli Township, Nantou County 545, Taiwan",Puli Township,Nantou County,Wu Gong Vil.,南投縣
158,1R07,Private,宗教研修學院,台灣基督長老教會南神神學院,Tainan Theological College,70142,22.98829,120.21394,"No. 117, Sec 1, Dong Men Rd., East District, Tainan City, 701, Taiwan",Tainan City,Tainan City,East District,臺南市
159,3002,Public,一般大學,臺北市立大學,University of Taipei,10048,25.03556,121.51357,"No. 1, Ai Guo W. Rd., Zhongzheng District, Taipei City, 100, Taiwan",Taipei City,Taipei City,Zhongzheng District,臺北市
160,3A01,Public,空中大學,高雄市立空中大學,Open University of Kaohsiung,81249,22.56642,120.34565,"No. 436, Da Ye N. Rd., Siaogang District, Kaohsiung City, 812, Taiwan",Kaohsiung City,Kaohsiung City,Siaogang District,高雄市
